GPS BIII-6  (PRN 28)    
1 55268U 23009A   24141.86577132  .00000097  00000+0  00000+0 0  9995
2 55268  55.0846 178.2384 0001299 109.7979  74.4963  2.00566212 10055
